{
    "links": {
        "self": "http://www.neowsapp.com/rest/v1/neo/54051417?api_key=iIulBulltgU6a56xZRHN4H3l9WmuAYTsLGpBGhQ2"
    },
    "id": "54051417",
    "neo_reference_id": "54051417",
    "name": "(2020 QH6)",
    "designation": "2020 QH6",
    "nasa_jpl_url": "http://ssd.jpl.nasa.gov/sbdb.cgi?sstr=54051417",
    "absolute_magnitude_h": 27.796,
    "estimated_diameter": {
        "kilometers": {
            "estimated_diameter_min": 0.0073342376,
            "estimated_diameter_max": 0.0163998539
        },
        "meters": {
            "estimated_diameter_min": 7.3342376228,
            "estimated_diameter_max": 16.3998538876
        },
        "miles": {
            "estimated_diameter_min": 0.0045572826,
            "estimated_diameter_max": 0.0101903936
        },
        "feet": {
            "estimated_diameter_min": 24.0624601623,
            "estimated_diameter_max": 53.8052966287
        }
    },
    "is_potentially_hazardous_asteroid": false,
    "close_approach_data": [
        {
            "close_approach_date": "2020-08-24",
            "close_approach_date_full": "2020-Aug-24 03:59",
            "epoch_date_close_approach": 1598241540000,
            "relative_velocity": {
                "kilometers_per_second": "8.369599029",
                "kilometers_per_hour": "30130.5565045209",
                "miles_per_hour": "18721.9560680452"
            },
            "miss_distance": {
                "astronomical": "0.0093290991",
                "lunar": "3.6290195499",
                "kilometers": "1395613.354378917",
                "miles": "867193.9260943746"
            },
            "orbiting_body": "Moon"
        },
        {
            "close_approach_date": "2020-08-24",
            "close_approach_date_full": "2020-Aug-24 10:40",
            "epoch_date_close_approach": 1598265600000,
            "relative_velocity": {
                "kilometers_per_second": "8.6217455882",
                "kilometers_per_hour": "31038.2841174822",
                "miles_per_hour": "19285.9827062211"
            },
            "miss_distance": {
                "astronomical": "0.0102004815",
                "lunar": "3.9679873035",
                "kilometers": "1525970.305374405",
                "miles": "948193.979420589"
            },
            "orbiting_body": "Earth"
        },
        {
            "close_approach_date": "2020-11-03",
            "close_approach_date_full": "2020-Nov-03 16:26",
            "epoch_date_close_approach": 1604420760000,
            "relative_velocity": {
                "kilometers_per_second": "10.9613792242",
                "kilometers_per_hour": "39460.9652070073",
                "miles_per_hour": "24519.509186543"
            },
            "miss_distance": {
                "astronomical": "0.0493120599",
                "lunar": "19.1823913011",
                "kilometers": "7376979.126352413",
                "miles": "4583842.2735247794"
            },
            "orbiting_body": "Mars"
        }
    ],
    "orbital_data": {
        "orbit_id": "2",
        "orbit_determination_date": "2020-09-14 06:55:08",
        "first_observation_date": "2020-08-27",
        "last_observation_date": "2020-09-13",
        "data_arc_in_days": 17,
        "observations_used": 13,
        "orbit_uncertainty": "8",
        "minimum_orbit_intersection": ".0041079",
        "jupiter_tisserand_invariant": "3.560",
        "epoch_osculation": "2459105.5",
        "eccentricity": ".5277375610768976",
        "semi_major_axis": "2.095951853391833",
        "inclination": "1.474328097854344",
        "ascending_node_longitude": "319.2772908027758",
        "orbital_period": "1108.333295479566",
        "perihelion_distance": ".9898393341482238",
        "perihelion_argument": "349.0512726304121",
        "aphelion_distance": "3.202064372635442",
        "perihelion_time": "2459067.189734459143",
        "mean_anomaly": "12.44363554804241",
        "mean_motion": ".3248120411687453",
        "equinox": "J2000",
        "orbit_class": {
            "orbit_class_type": "APO",
            "orbit_class_description": "Near-Earth asteroid orbits which cross the Earth’s orbit similar to that of 1862 Apollo",
            "orbit_class_range": "a (semi-major axis) > 1.0 AU; q (perihelion) < 1.017 AU"
        }
    },
    "is_sentry_object": false
}